[{"OBJECT_NAME":"NUSHSAT1","OBJECT_ID":"2025-052B","EPOCH":"2026-03-09T15:31:41.225952","MEAN_MOTION":15.31903202,"ECCENTRICITY":0.0005501,"INCLINATION":97.4095,"RA_OF_ASC_NODE":325.7239,"ARG_OF_PERICENTER":84.7512,"MEAN_ANOMALY":275.4357,"EPHEMERIS_TYPE":0,"CLASSIFICATION_TYPE":"U","NORAD_CAT_ID":63211,"ELEMENT_SET_NO":999,"REV_AT_EPOCH":5488,"BSTAR":0.00074857,"MEAN_MOTION_DOT":0.00023034,"MEAN_MOTION_DDOT":0},{"OBJECT_NAME":"STARLINK-34511","OBJECT_ID":"2025-176S","EPOCH":"2026-03-09T22:39:07.366464","MEAN_MOTION":15.30194055,"ECCENTRICITY":0.00011155,"INCLINATION":53.1608,"RA_OF_ASC_NODE":151.9536,"ARG_OF_PERICENTER":87.1163,"MEAN_ANOMALY":272.9965,"EPHEMERIS_TYPE":0,"CLASSIFICATION_TYPE":"U","NORAD_CAT_ID":65214,"ELEMENT_SET_NO":999,"REV_AT_EPOCH":3309,"BSTAR":0.00088767553,"MEAN_MOTION_DOT":0.00026018,"MEAN_MOTION_DDOT":0}]
